{"type": "FeatureCollection", "features": [{"type": "Feature", "properties": {"norad_id": 24946, "name": "IRIDIUM 33", "group": "iridium-33-debris", "lat": 33.033184720025766, "lon": -110.53125593027191, "alt_km": 772.7988120271721, "timestamp": "2025-12-04T03:47:54.927007+00:00", "meta": {"OBJECT_NAME": "IRIDIUM 33", "OBJECT_ID": "1997-051C", "EPOCH": "2025-12-03T18:44:55.101120", "MEAN_MOTION": 14.35026626, "ECCENTRICITY": 0.000616, "INCLINATION": 86.3871, "RA_OF_ASC_NODE": 71.9815, "ARG_OF_PERICENTER": 234.9647, "MEAN_ANOMALY": 125.0972, "EPHEMERIS_TYPE": 0, "CLASSIFICATION_TYPE": "U", "NORAD_CAT_ID": 24946, "ELEMENT_SET_NO": 999, "REV_AT_EPOCH": 47706, "BSTAR": 0.00019631, "MEAN_MOTION_DOT": 5.79e-06, "MEAN_MOTION_DDOT": 0}, "tle": {"line1": "1 24946U 97051C   25337.78119330  .00000579  00000+0  19631-3 0  9992", "line2": "2 24946  86.3871  71.9815 0006160 234.9647 125.0972 14.35026626477064"}}, "geometry": {"type": "Point", "coordinates": [-110.53125593027191, 33.033184720025766]}}, {"type": "Feature", "properties": {"norad_id": 33773, "name": "IRIDIUM 33 DEB", "group": "iridium-33-debris", "lat": -30.729091059226835, "lon": -113.63076160671493, "alt_km": 747.528658591129, "timestamp": "2025-12-04T03:47:54.927032+00:00", "meta": {"OBJECT_NAME": "IRIDIUM 33 DEB", "OBJECT_ID": "1997-051L", "EPOCH": "2025-12-02T19:12:34.458048", "MEAN_MOTION": 14.43219569, "ECCENTRICITY": 0.00114308, "INCLINATION": 86.4014, "RA_OF_ASC_NODE": 64.8005, "ARG_OF_PERICENTER": 177.1469, "MEAN_ANOMALY": 182.9799, "EPHEMERIS_TYPE": 0, "CLASSIFICATION_TYPE": "U", "NORAD_CAT_ID": 33773, "ELEMENT_SET_NO": 999, "REV_AT_EPOCH": 88204, "BSTAR": 0.00045843518, "MEAN_MOTION_DOT": 1.562e-05, "MEAN_MOTION_DDOT": 0}, "tle": {"line1": "1 33773U 97051L   25336.80039882  .00001562  00000+0  45844-3 0  9993", "line2": "2 33773  86.4014  64.8005 0011430 177.1469 182.9799 14.43219569882046"}}, "geometry": {"type": "Point", "coordinates": [-113.63076160671493, -30.729091059226835]}}, {"type": "Feature", "properties": {"norad_id": 33775, "name": "IRIDIUM 33 DEB", "group": "iridium-33-debris", "lat": -10.791377124753863, "lon": 52.522237019934046, "alt_km": 767.2916892580415, "timestamp": "2025-12-04T03:47:54.927047+00:00", "meta": {"OBJECT_NAME": "IRIDIUM 33 DEB", "OBJECT_ID": "1997-051N", "EPOCH": "2025-12-03T04:47:18.934080", "MEAN_MOTION": 14.41433702, "ECCENTRICITY": 0.001319, "INCLINATION": 86.3643, "RA_OF_ASC_NODE": 53.6257, "ARG_OF_PERICENTER": 185.0257, "MEAN_ANOMALY": 232.2988, "EPHEMERIS_TYPE": 0, "CLASSIFICATION_TYPE": "U", "NORAD_CAT_ID": 33775, "ELEMENT_SET_NO": 999, "REV_AT_EPOCH": 88003, "BSTAR": 0.00051484, "MEAN_MOTION_DOT": 1.69e-05, "MEAN_MOTION_DDOT": 0}, "tle": {"line1": "1 33775U 97051N   25337.19952470  .00001690  00000+0  51484-3 0  9994", "line2": "2 33775  86.3643  53.6257 0013190 185.0257 232.2988 14.41433702880039"}}, "geometry": {"type": "Point", "coordinates": [52.522237019934046, -10.791377124753863]}}, {"type": "Feature", "properties": {"norad_id": 33776, "name": "IRIDIUM 33 DEB", "group": "iridium-33-debris", "lat": -41.180345014789545, "lon": 81.22540176855975, "alt_km": 772.4913730515273, "timestamp": "2025-12-04T03:47:54.927059+00:00", "meta": {"OBJECT_NAME": "IRIDIUM 33 DEB", "OBJECT_ID": "1997-051P", "EPOCH": "2025-12-03T09:56:12.237792", "MEAN_MOTION": 14.38204962, "ECCENTRICITY": 0.0013357, "INCLINATION": 86.4037, "RA_OF_ASC_NODE": 84.6918, "ARG_OF_PERICENTER": 222.6678, "MEAN_ANOMALY": 205.0874, "EPHEMERIS_TYPE": 0, "CLASSIFICATION_TYPE": "U", "NORAD_CAT_ID": 33776, "ELEMENT_SET_NO": 999, "REV_AT_EPOCH": 87948, "BSTAR": 0.00046443, "MEAN_MOTION_DOT": 1.43e-05, "MEAN_MOTION_DDOT": 0}, "tle": {"line1": "1 33776U 97051P   25337.41403053  .00001430  00000+0  46443-3 0  9999", "line2": "2 33776  86.4037  84.6918 0013357 222.6678 205.0874 14.38204962879485"}}, "geometry": {"type": "Point", "coordinates": [81.22540176855975, -41.180345014789545]}}, {"type": "Feature", "properties": {"norad_id": 33777, "name": "IRIDIUM 33 DEB", "group": "iridium-33-debris", "lat": -68.36524437309649, "lon": 29.752041410632852, "alt_km": 711.4349738588799, "timestamp": "2025-12-04T03:47:54.927070+00:00", "meta": {"OBJECT_NAME": "IRIDIUM 33 DEB", "OBJECT_ID": "1997-051Q", "EPOCH": "2025-12-03T11:36:48.686976", "MEAN_MOTION": 14.55494703, "ECCENTRICITY": 0.0005156, "INCLINATION": 86.3801, "RA_OF_ASC_NODE": 39.2292, "ARG_OF_PERICENTER": 292.6245, "MEAN_ANOMALY": 67.4417, "EPHEMERIS_TYPE": 0, "CLASSIFICATION_TYPE": "U", "NORAD_CAT_ID": 33777, "ELEMENT_SET_NO": 999, "REV_AT_EPOCH": 88399, "BSTAR": 0.0014013, "MEAN_MOTION_DOT": 6.119e-05, "MEAN_MOTION_DDOT": 0}, "tle": {"line1": "1 33777U 97051Q   25337.48389684  .00006119  00000+0  14013-2 0  9996", "line2": "2 33777  86.3801  39.2292 0005156 292.6245  67.4417 14.55494703883997"}}, "geometry": {"type": "Point", "coordinates": [29.752041410632852, -68.36524437309649]}}, {"type": "Feature", "properties": {"norad_id": 33850, "name": "IRIDIUM 33 DEB", "group": "iridium-33-debris", "lat": -50.59134310733237, "lon": 29.404263959286506, "alt_km": 762.6903016064798, "timestamp": "2025-12-04T03:47:54.927082+00:00", "meta": {"OBJECT_NAME": "IRIDIUM 33 DEB", "OBJECT_ID": "1997-051T", "EPOCH": "2025-12-03T11:40:49.182240", "MEAN_MOTION": 14.42113572, "ECCENTRICITY": 0.001124, "INCLINATION": 86.3424, "RA_OF_ASC_NODE": 34.1578, "ARG_OF_PERICENTER": 190.1398, "MEAN_ANOMALY": 234.6586, "EPHEMERIS_TYPE": 0, "CLASSIFICATION_TYPE": "U", "NORAD_CAT_ID": 33850, "ELEMENT_SET_NO": 999, "REV_AT_EPOCH": 88019, "BSTAR": 0.00061974, "MEAN_MOTION_DOT": 2.057e-05, "MEAN_MOTION_DDOT": 0}, "tle": {"line1": "1 33850U 97051T   25337.48668035  .00002057  00000+0  61974-3 0  9994", "line2": "2 33850  86.3424  34.1578 0011240 190.1398 234.6586 14.42113572880195"}}, "geometry": {"type": "Point", "coordinates": [29.404263959286506, -50.59134310733237]}}, {"type": "Feature", "properties": {"norad_id": 33853, "name": "IRIDIUM 33 DEB", "group": "iridium-33-debris", "lat": -40.55014425009476, "lon": 177.0071133656375, "alt_km": 790.3997234542612, "timestamp": "2025-12-04T03:47:54.927093+00:00", "meta": {"OBJECT_NAME": "IRIDIUM 33 DEB", "OBJECT_ID": "1997-051W", "EPOCH": "2025-12-03T12:03:16.668864", "MEAN_MOTION": 13.98961391, "ECCENTRICITY": 0.0206807, "INCLINATION": 86.0004, "RA_OF_ASC_NODE": 353.8627, "ARG_OF_PERICENTER": 264.3782, "MEAN_ANOMALY": 255.9822, "EPHEMERIS_TYPE": 0, "CLASSIFICATION_TYPE": "U", "NORAD_CAT_ID": 33853, "ELEMENT_SET_NO": 999, "REV_AT_EPOCH": 85216, "BSTAR": 0.0030737, "MEAN_MOTION_DOT": 5.345e-05, "MEAN_MOTION_DDOT": 0}, "tle": {"line1": "1 33853U 97051W   25337.50227626  .00005345  00000+0  30737-2 0  9992", "line2": "2 33853  86.0004 353.8627 0206807 264.3782 255.9822 13.98961391852166"}}, "geometry": {"type": "Point", "coordinates": [177.0071133656375, -40.55014425009476]}}, {"type": "Feature", "properties": {"norad_id": 33860, "name": "IRIDIUM 33 DEB", "group": "iridium-33-debris", "lat": -7.461805884016964, "lon": -148.48936141650316, "alt_km": 679.8622836229888, "timestamp": "2025-12-04T03:47:54.927105+00:00", "meta": {"OBJECT_NAME": "IRIDIUM 33 DEB", "OBJECT_ID": "1997-051AD", "EPOCH": "2025-12-03T10:38:45.202272", "MEAN_MOTION": 14.67161247, "ECCENTRICITY": 0.0008596, "INCLINATION": 86.385, "RA_OF_ASC_NODE": 31.3522, "ARG_OF_PERICENTER": 28.3403, "MEAN_ANOMALY": 346.5569, "EPHEMERIS_TYPE": 0, "CLASSIFICATION_TYPE": "U", "NORAD_CAT_ID": 33860, "ELEMENT_SET_NO": 999, "REV_AT_EPOCH": 88586, "BSTAR": 0.001768, "MEAN_MOTION_DOT": 9.972e-05, "MEAN_MOTION_DDOT": 0}, "tle": {"line1": "1 33860U 97051AD  25337.44357873  .00009972  00000+0  17680-2 0  9993", "line2": "2 33860  86.3850  31.3522 0008596  28.3403 346.5569 14.67161247885868"}}, "geometry": {"type": "Point", "coordinates": [-148.48936141650316, -7.461805884016964]}}, {"type": "Feature", "properties": {"norad_id": 33862, "name": "IRIDIUM 33 DEB", "group": "iridium-33-debris", "lat": 21.045536794730243, "lon": -140.07042733115406, "alt_km": 644.9491771110888, "timestamp": "2025-12-04T03:47:54.927116+00:00", "meta": {"OBJECT_NAME": "IRIDIUM 33 DEB", "OBJECT_ID": "1997-051AF", "EPOCH": "2025-12-03T10:47:22.331328", "MEAN_MOTION": 14.69215841, "ECCENTRICITY": 0.0054066, "INCLINATION": 86.4102, "RA_OF_ASC_NODE": 41.6259, "ARG_OF_PERICENTER": 100.1933, "MEAN_ANOMALY": 271.9985, "EPHEMERIS_TYPE": 0, "CLASSIFICATION_TYPE": "U", "NORAD_CAT_ID": 33862, "ELEMENT_SET_NO": 999, "REV_AT_EPOCH": 88687, "BSTAR": 0.0018521, "MEAN_MOTION_DOT": 0.00011186, "MEAN_MOTION_DDOT": 0}, "tle": {"line1": "1 33862U 97051AF  25337.44956402  .00011186  00000+0  18521-2 0  9993", "line2": "2 33862  86.4102  41.6259 0054066 100.1933 271.9985 14.69215841886879"}}, "geometry": {"type": "Point", "coordinates": [-140.07042733115406, 21.045536794730243]}}, {"type": "Feature", "properties": {"norad_id": 33866, "name": "IRIDIUM 33 DEB", "group": "iridium-33-debris", "lat": 36.362338385822476, "lon": -86.0652902219868, "alt_km": 747.3018319598032, "timestamp": "2025-12-04T03:47:54.927127+00:00", "meta": {"OBJECT_NAME": "IRIDIUM 33 DEB", "OBJECT_ID": "1997-051AK", "EPOCH": "2025-12-03T08:50:48.901920", "MEAN_MOTION": 14.25219287, "ECCENTRICITY": 0.0113711, "INCLINATION": 86.2997, "RA_OF_ASC_NODE": 96.9997, "ARG_OF_PERICENTER": 191.2792, "MEAN_ANOMALY": 224.088, "EPHEMERIS_TYPE": 0, "CLASSIFICATION_TYPE": "U", "NORAD_CAT_ID": 33866, "ELEMENT_SET_NO": 999, "REV_AT_EPOCH": 86677, "BSTAR": 0.001023, "MEAN_MOTION_DOT": 2.59e-05, "MEAN_MOTION_DDOT": 0}, "tle": {"line1": "1 33866U 97051AK  25337.36862155  .00002590  00000+0  10230-2 0  9997", "line2": "2 33866  86.2997  96.9997 0113711 191.2792 224.0880 14.25219287866772"}}, "geometry": {"type": "Point", "coordinates": [-86.0652902219868, 36.362338385822476]}}]}